STARLINK-34493          
1 64472U 25133A   25203.47366352  .00054796  00000+0  13694-2 0  9990
2 64472  53.1613 114.4941 0001255  83.0779 277.0369 15.39634559  5824
STARLINK-34492          
1 64473U 25133B   25203.91668981 -.00004802  00000+0 -11015-3 0  9994
2 64473  53.1598 112.3592 0001170  85.1003 235.8221 15.39619715  5887
STARLINK-34474          
1 64474U 25133C   25203.58335648  .00062934  00000+0  15725-2 0  9998
2 64474  53.1598 113.9247 0001356  92.9469 181.2605 15.39578564  5910
STARLINK-34523          
1 64475U 25133D   25203.91668981 -.00005480  00000+0 -12712-3 0  9994
2 64475  53.1599 112.3065 0001285  67.3442 279.3351 15.39619397  5862
STARLINK-34496          
1 64476U 25133E   25203.91668981  .00001963  00000+0  59059-4 0  9991
2 64476  53.1602 112.3025 0000539 320.7034  27.7734 15.39607367  5884
STARLINK-34375          
1 64477U 25133F   25203.58335648  .00067687  00000+0  16882-2 0  9996
2 64477  53.1599 113.8246 0000958  67.6665 256.1335 15.39601582  5836
STARLINK-34490          
1 64478U 25133G   25203.58335648  .00087062  00000+0  21642-2 0  9996
2 64478  53.1599 113.7729 0001218 100.4924 248.9956 15.39585771  5835
STARLINK-34528          
1 64479U 25133H   25203.58335648  .00066478  00000+0  16595-2 0  9996
2 64479  53.1598 113.8209 0000861 103.5727 222.1401 15.39583047  5919
STARLINK-34518          
1 64480U 25133J   25203.58335648  .00062677  00000+0  15658-2 0  9994
2 64480  53.1598 113.7684 0001205  95.7648 255.6958 15.39585738  5674
STARLINK-34526          
1 64481U 25133K   25203.91668981 -.00006417  00000+0 -15059-3 0  9999
2 64481  53.1599 112.1512 0001292  90.4135 333.5109 15.39617503  5779
STARLINK-34527          
1 64482U 25133L   25203.91668981 -.00006051  00000+0 -14143-3 0  9997
2 64482  53.1598 112.1471 0001060  98.4853 327.3121 15.39616700  5886
STARLINK-34420          
1 64483U 25133M   25203.91668981  .00005008  00000+0  13517-3 0  9991
2 64483  53.1601 112.0992 0001414  69.7572  19.9318 15.39606743  5889
STARLINK-34509          
1 64484U 25133N   25203.58335648  .00081237  00000+0  20245-2 0  9999
2 64484  53.1599 113.6652 0001475  91.7656 311.2700 15.39541869  5836
STARLINK-34409          
1 64485U 25133P   25203.58335648 -.01531123  00000+0 -38656-1 0  9991
2 64485  53.1597 113.6259 0000843 103.7199 319.0342 15.42431878  5832
STARLINK-34520          
1 64486U 25133Q   25203.58335648 -.01533555  00000+0 -38731-1 0  9997
2 64486  53.1600 113.6218 0000997  87.8505 336.7870 15.42425377  5835
STARLINK-34477          
1 64487U 25133R   25203.91668981 -.01598306  00000+0 -39072-1 0  9998
2 64487  53.1606 112.0111 0001424  67.6992  65.8066 15.43516105  5882
STARLINK-34217          
1 64488U 25133S   25203.91668981 -.01603436  00000+0 -39214-1 0  9998
2 64488  53.1605 112.0065 0001455  63.7281  71.6603 15.43514005  5779
STARLINK-34307          
1 64489U 25133T   25203.91668981 -.01605292  00000+0 -36371-1 0  9992
2 64489  53.1604 111.9823 0001456  71.4198  76.5285 15.45743056  5865
STARLINK-34505          
1 64490U 25133U   25203.17920285 -.00219948  00000+0 -41423-2 0  9993
2 64490  53.1611 115.4918 0000527 122.1477 237.9583 15.48732591  5769
STARLINK-34530          
1 64491U 25133V   25203.17875658  .00055324  00000+0  99485-3 0  9993
2 64491  53.1609 115.4905 0001103 107.7391 252.3738 15.49334856  5764
STARLINK-34522          
1 64492U 25133W   25203.33335648 -.01110490  00000+0 -21810-1 0  9996
2 64492  53.1600 114.7468 0001188  79.4356  65.2745 15.49682228  5893
STARLINK-34462          
1 64493U 25133X   25203.04905470  .00051414  00000+0  92579-3 0  9990
2 64493  53.1604 116.1005 0001064  93.3719 266.7412 15.49327727  5767
STARLINK-34226          
1 64494U 25133Y   25203.82280685  .00050283  00000+0  90505-3 0  9991
2 64494  53.1606 112.3988 0001186  85.8338 274.2807 15.49349031  5715
STARLINK-34364          
1 64495U 25133Z   25203.17703883  .00036675  00000+0  66374-3 0  9996
2 64495  53.1601 115.4784 0000933  86.3347 273.7769 15.49336676  5783
STARLINK-34268          
1 64496U 25133AA  25203.58335648  .00081767  00000+0  14658-2 0  9991
2 64496  53.1602 113.5381 0001148  97.1146   8.6402 15.49252210  5839
STARLINK-34363          
1 64497U 25133AB  25203.04767927  .00081671  00000+0  14603-2 0  9996
2 64497  53.1609 116.0913 0001090  92.7728 267.3406 15.49326510  5764
STARLINK-34427          
1 64498U 25133AC  25203.17635295  .00047674  00000+0  85938-3 0  9998
2 64498  53.1605 115.4756 0001082  81.3391 278.7740 15.49329956  5786
KUIPER-00039            
1 64500U 25134A   25203.23478804  .00023068  00000+0  68030-3 0  9996
2 64500  51.8678 192.3540 0007198 214.5807 145.4711 15.34879729  5663
KUIPER-00040            
1 64501U 25134B   25203.83335648 -.00381273  00000+0 -14268-1 0  9990
2 64501  51.8669 189.8053 0011340 232.5131  41.4086 15.28359352  5284
KUIPER-00041            
1 64502U 25134C   25203.83335648 -.01504074  00000+0 -64939-1 0  9998
2 64502  51.8701 189.8463 0008570 224.3034 359.1753 15.24960243  5282
KUIPER-00042            
1 64503U 25134D   25203.76136320  .00003380  00000+0  11053-3 0  9999
2 64503  51.8646 189.8749 0008614 221.4595 138.5737 15.34564776  5280
KUIPER-00043            
1 64504U 25134E   25203.69202594  .00018260  00000+0  54259-3 0  9997
2 64504  51.8671 190.1674 0007866 211.5251 148.5264 15.34793556  5655
KUIPER-00044            
1 64505U 25134F   25203.83335648 -.01514114  00000+0 -65864-1 0  9995
2 64505  51.8670 189.9084 0010563 220.8959 351.9825 15.24702961  5272
KUIPER-00046            
1 64506U 25134G   25203.58335648 -.00882135  00000+0 -30057-1 0  9994
2 64506  51.8674 190.7779 0008817 221.3960 214.3406 15.32486030  5255
KUIPER-00047            
1 64507U 25134H   25203.37786475  .00019666  00000+0  59508-3 0  9993
2 64507  51.8618 191.7976 0010131 231.6100 128.3976 15.34146322  5688
KUIPER-00048            
1 64508U 25134J   25203.34124587  .00033760  00000+0  94873-3 0  9996
2 64508  51.8752 191.5878 0002548 198.2630 161.8265 15.36205163  5680
KUIPER-00049            
1 64509U 25134K   25203.22836466  .00013415  00000+0  39600-3 0  9992
2 64509  51.8712 192.3196 0006576 210.8241 149.2360 15.35263454  5663
KUIPER-00050            
1 64510U 25134L   25203.68677195  .00020710  00000+0  60861-3 0  9995
2 64510  51.8718 190.1422 0006861 212.5947 147.4616 15.35062030  5276
KUIPER-00051            
1 64511U 25134M   25203.67811619  .00026431  00000+0  76504-3 0  9993
2 64511  51.8725 190.0883 0004881 199.3093 160.7709 15.35401392  5650
KUIPER-00052            
1 64512U 25134N   25203.91668981  .00059532  00000+0  15448-2 0  9990
2 64512  51.8736 188.6561 0003478 218.7584 160.8371 15.38412953  5318
KUIPER-00053            
1 64513U 25134P   25203.27142025  .00019723  00000+0  55717-3 0  9998
2 64513  51.8760 191.8682 0001830 187.7059 172.3900 15.36351652  5679
KUIPER-00054            
1 64514U 25134Q   25203.66550203  .00020574  00000+0  58332-3 0  9995
2 64514  51.8750 190.0105 0002790 187.1917 172.9030 15.36208324  5670
KUIPER-00055            
1 64515U 25134R   25203.26319935  .00013264  00000+0  37314-3 0  9992
2 64515  51.8755 191.8170 0000763  90.7905 269.3169 15.36799713  5526
KUIPER-00056            
1 64516U 25134S   25203.34421998  .00010739  00000+0  31294-3 0  9990
2 64516  51.8726 191.6049 0003039 198.0932 161.9946 15.35910993  5680
KUIPER-00057            
1 64517U 25134T   25203.68505571  .00022576  00000+0  66215-3 0  9991
2 64517  51.8697 190.1270 0006456 209.2975 150.7649 15.35070186  5380
KUIPER-00058            
1 64518U 25134U   25203.67618591  .00022045  00000+0  63638-3 0  9995
2 64518  51.8710 190.0754 0004397 209.9275 150.1460 15.35594527  5278
KUIPER-00059            
1 64519U 25134V   25203.26478073  .00058158  00000+0  15963-2 0  9991
2 64519  51.8755 191.8227 0001636 141.4328 218.6775 15.36691701  5670
KUIPER-00060            
1 64520U 25134W   25203.26903975  .00022316  00000+0  62502-3 0  9996
2 64520  51.8748 191.8534 0002079 152.6434 207.4662 15.36538542  5662
KUIPER-00061            
1 64521U 25134X   25203.67944082  .00023521  00000+0  68207-3 0  9993
2 64521  51.8735 190.0983 0004886 210.9917 149.0781 15.35410633  5279
KUIPER-00062            
1 64522U 25134Y   25203.21768643  .00022912  00000+0  65796-3 0  9994
2 64522  51.8740 192.2564 0004746 196.2016 163.8818 15.35733211  5664
KUIPER-00063            
1 64523U 25134Z   25203.40305547  .00010929  00000+0  31452-3 0  9993
2 64523  51.8738 191.2521 0002266 170.1963 189.9068 15.36286255  5692
KUIPER-00064            
1 64524U 25134AA  25203.39262291  .00018019  00000+0  50110-3 0  9990
2 64524  51.8761 191.1816 0001232 116.2303 243.8811 15.36906171  5698
KUIPER-00065            
1 64525U 25134AB  25203.36828719  .00022769  00000+0  67534-3 0  9996
2 64525  51.8705 191.7530 0008077 215.1250 144.9203 15.34700896  5465
KUIPER-00066            
1 64526U 25134AC  25203.83335648  .00060679  00000+0  16677-2 0  9996
2 64526  51.8743 189.1092 0001554 138.4044 115.0687 15.36631567  5299
2025-135A               
1 64528U 25135A   25203.76275520  .00006219  00000+0  31819-3 0  9999
2 64528  97.4403 317.7676 0004400 248.3886 111.6879 15.16976957  4821
2025-135B               
1 64529U 25135B   25203.56492671  .00005158  00000+0  26486-3 0  9991
2 64529  97.4503 317.6086 0004207 228.8150 131.2721 15.16933993  4792
2025-135C               
1 64530U 25135C   25203.56289019  .00006191  00000+0  31539-3 0  9996
2 64530  97.4398 317.5742 0004194 249.8504 110.2279 15.17130673  4795
TPA-1                   
1 64531U 25135D   25203.56295561  .00007558  00000+0  38442-3 0  9994
2 64531  97.4491 317.6066 0004333 226.9011 133.1861 15.17112959  4792
2025-135E               
1 64532U 25135E   25203.56289378  .00007162  00000+0  36448-3 0  9999
2 64532  97.4492 317.6069 0004337 226.5265 133.5608 15.17115809  4798
